[{"OBJECT_NAME":"ENMAP","OBJECT_ID":"2022-033C","EPOCH":"2026-03-09T22:00:43.226208","MEAN_MOTION":14.74967625,"ECCENTRICITY":0.00010636,"INCLINATION":97.9792,"RA_OF_ASC_NODE":152.5765,"ARG_OF_PERICENTER":93.4267,"MEAN_ANOMALY":266.7063,"EPHEMERIS_TYPE":0,"CLASSIFICATION_TYPE":"U","NORAD_CAT_ID":52159,"ELEMENT_SET_NO":999,"REV_AT_EPOCH":21202,"BSTAR":5.7736752e-5,"MEAN_MOTION_DOT":3.38e-6,"MEAN_MOTION_DDOT":0},{"OBJECT_NAME":"CZ-6A DEB","OBJECT_ID":"2024-140UB","EPOCH":"2026-03-09T07:34:00.209280","MEAN_MOTION":14.61481407,"ECCENTRICITY":0.01031348,"INCLINATION":88.9252,"RA_OF_ASC_NODE":277.0052,"ARG_OF_PERICENTER":244.4242,"MEAN_ANOMALY":114.6283,"EPHEMERIS_TYPE":0,"CLASSIFICATION_TYPE":"U","NORAD_CAT_ID":61314,"ELEMENT_SET_NO":999,"REV_AT_EPOCH":8129,"BSTAR":0.0013982292,"MEAN_MOTION_DOT":7.493e-5,"MEAN_MOTION_DDOT":0}]
